BEIDOU-2 G8             
1 44231U 19027A   26160.94078649 -.00000229  00000+0  00000+0 0  9997
2 44231   1.6386  74.4929 0010423 284.0102  23.0210  1.00273789 26005
COSMOS 2534 [GLONASS-M] 
1 44299U 19030A   26159.61659668  .00000099  00000+0  00000+0 0  9997
2 44299  64.3678 192.9050 0013272 275.0363 129.0029  2.13102483 54748
BEIDOU-3 IGSO-2         
1 44337U 19035A   26160.01737213 -.00000043  00000+0  00000+0 0  9994
2 44337  55.2449 158.9337 0039959 216.4337   8.1508  1.00269508 25582
NAVSTAR 78 (USA 293)    
1 44506U 19056A   26160.66603872 -.00000060  00000+0  00000+0 0  9998
2 44506  55.6415 331.4421 0061619 197.5538 159.0803  2.00569631 49917
BEIDOU-3 M24            
1 44542U 19061A   26160.18815803  .00000118  00000+0  00000+0 0  9993
2 44542  54.3960 182.9979 0008280 359.3056   0.7533  1.86229354 45649
BEIDOU-3 M23            
1 44543U 19061B   26160.40028029  .00000120  00000+0  00000+0 0  9998
2 44543  54.3945 182.9589 0005604 337.7254  76.1943  1.86227451 45656
EUTELSAT 5 WEST B       
1 44624U 19067A   26160.69736179 -.00000025  00000+0  00000+0 0  9992
2 44624   0.0630 348.8093 0003092  89.7199  65.6028  1.00271949 24368
BEIDOU-3 IGSO-3         
1 44709U 19073A   26136.81046384 -.00000217  00000+0  00000+0 0  9995
2 44709  54.8566 281.2355 0042953 189.4588 170.3676  1.00246251 24144
BEIDOU-3 M22            
1 44793U 19078A   26160.56479635 -.00000061  00000+0  00000+0 0  9998
2 44793  53.9433 300.0965 0006476  49.2798 310.7668  1.86227604 44501
BEIDOU-3 M21            
1 44794U 19078B   26159.63081975 -.00000059  00000+0  00000+0 0  9998
2 44794  53.9173 300.0906 0004394  47.4319 312.5973  1.86228036 44491
COSMOS 2544 [GLONASS-M] 
1 44850U 19088A   26160.05192801 -.00000018  00000+0  00000+0 0  9996
2 44850  65.5611  74.0023 0013578 259.5106 100.3561  2.13102205 50541
BEIDOU-3 M19            
1 44864U 19090A   26157.45598128 -.00000038  00000+0  00000+0 0  9998
2 44864  56.5493  63.1460 0018115 297.5322 241.6390  1.86231867 44034
BEIDOU-3 M20            
1 44865U 19090B   26159.47157170 -.00000044  00000+0  00000+0 0  9998
2 44865  56.5524  63.1141 0015823 311.5803 228.5315  1.86231436 44055
BEIDOU-3 G2             
1 45344U 20017A   26160.92804644 -.00000125  00000+0  00000+0 0  9999
2 45344   2.8484  47.2327 0002455  30.1210 235.0996  1.00273495 23185
COSMOS 2545 [GLONASS-M] 
1 45358U 20018A   26158.83918744 -.00000031  00000+0  00000+0 0  9995
2 45358  64.3612 312.7475 0007948 231.5141 128.4125  2.13102843 48462
BEIDOU-3 G3             
1 45807U 20040A   26160.93411313 -.00000337  00000+0  00000+0 0  9992
2 45807   2.4283  67.4328 0002781 338.7251 299.0058  1.00271128 21998
NAVSTAR 79 (USA 304)    
1 45854U 20041A   26160.51111454 -.00000065  00000+0  00000+0 0  9990
2 45854  56.6644  29.2419 0063565 204.6400 338.8574  2.00558822 43880
GALAXY 30 (G-30)        
1 46114U 20056C   26160.74486928  .00000054  00000+0  00000+0 0  9999
2 46114   0.0181 315.9250 0002141 118.6738 326.6745  1.00273387 21215
COSMOS 2547 [GLONASS-K] 
1 46805U 20075A   26160.43644907  .00000108  00000+0  00000+0 0  9996
2 46805  64.5989 192.7345 0009207 239.5345 120.4461  2.13100291 43741
NAVSTAR 80 (USA 309)    
1 46826U 20078A   26160.36362656  .00000068  00000+0  00000+0 0  9997
2 46826  53.9808 211.0963 0073236 206.9943 206.0906  2.00564862 41356
NAVSTAR 81 (USA 319)    
1 48859U 21054A   26160.53379556 -.00000061  00000+0  00000+0 0  9990
2 48859  55.1784 332.7678 0025210 228.5565 133.5847  2.00569437 36607
QZS-1R (MICHIBIKI-1R)   
1 49336U 21096A   26160.65203072 -.00000235  00000+0  00000+0 0  9992
2 49336  37.4460  79.6965 0754347 271.6353 275.8796  1.00258277 16935
GSAT0223 (GALILEO 27)   
1 49809U 21116A   26158.90513906 -.00000062  00000+0  00000+0 0  9993
2 49809  57.1628 341.9264 0001255 184.9804 358.2440  1.70476094 28023
GSAT0224 (GALILEO 28)   
1 49810U 21116B   26159.30412110 -.00000062  00000+0  00000+0 0  9995
2 49810  57.1644 341.9144 0000971 150.8556  29.8565  1.70476102 28052
COSMOS 2557 [GLONASS-K] 
1 52984U 22075A   26159.66227093 -.00000033  00000+0  00000+0 0  9997
2 52984  64.3022 314.7857 0010227 275.2722  84.6098  2.13102161 30534
COSMOS 2559 [GLONASS-K] 
1 54031U 22130A   26159.95114162 -.00000034  00000+0  00000+0 0  9999
2 54031  64.2767 314.8589 0012420 178.5990 181.4033  2.13101700 28514
COSMOS 2564 [GLONASS-M] 
1 54377U 22161A   26160.26370965  .00000106  00000+0  00000+0 0  9996
2 54377  64.7410 192.9748 0012092 224.3987 135.5755  2.13102019 27468
NAVSTAR 82 (USA 343)    
1 55268U 23009A   26158.73659273  .00000105  00000+0  00000+0 0  9998
2 55268  55.1217 148.8905 0006217 315.6663 226.9396  2.00572207 25054
BEIDOU-3 G4             
1 56564U 23066A   26160.93991981 -.00000266  00000+0  00000+0 0  9990
2 56564   0.4956 329.5016 0004408 170.9517 236.1661  1.00266001 11322
NVS-01 (IRNSS-1J)       
1 56759U 23076A   26160.79528437 -.00000317  00000+0  00000+0 0  9990
2 56759   2.1846 244.6956 0003039  39.4003  29.9484  1.00268760 11047
COSMOS 2569 [GLONASS-K2]
1 57517U 23114A   26160.27603906 -.00000021  00000+0  00000+0 0  9996
2 57517  65.2978  72.8873 0010960 296.8691  63.0394  2.13103681 22099
